GSAT0101 (GALILEO-PFM)  
1 37846U 11060A   25092.90965392 -.00000101  00000+0  00000+0 0  9998
2 37846  57.1054 353.6947 0003969  11.1088 348.9331  1.70475672 83613
GSAT0102 (GALILEO-FM2)  
1 37847U 11060B   25093.68039508 -.00000104  00000+0  00000+0 0  9999
2 37847  57.1059 353.6742 0004842 346.4121 171.9691  1.70475878 83638
GSAT0103 (GALILEO-FM3)  
1 38857U 12055A   25091.18953138  .00000040  00000+0  00000+0 0  9991
2 38857  55.5469 113.6852 0005934 281.1140  78.8723  1.70473422 77471
GSAT0201 (GALILEO 5)    
1 40128U 14050A   25091.98630548 -.00000034  00000+0  00000+0 0  9991
2 40128  49.3560 291.4102 1624566 162.3429 204.0377  1.85519640 70133
GSAT0202 (GALILEO 6)    
1 40129U 14050B   25093.32146462 -.00000030  00000+0  00000+0 0  9995
2 40129  49.3699 290.4367 1624485 163.1735 202.9206  1.85520384 72326
GSAT0203 (GALILEO 7)    
1 40544U 15017A   25093.27500628 -.00000103  00000+0  00000+0 0  9993
2 40544  56.8985 353.5785 0003867 294.7341  65.2581  1.70475000 62368
GSAT0204 (GALILEO 8)    
1 40545U 15017B   25093.52983662 -.00000104  00000+0  00000+0 0  9996
2 40545  56.9060 353.5891 0003083 285.7715  74.2264  1.70475360 24755
GSAT0205 (GALILEO 9)    
1 40889U 15045A   25090.36514434  .00000008  00000+0  00000+0 0  9996
2 40889  55.0997 233.8341 0005275  48.2203 311.7673  1.70473720 59461
GSAT0206 (GALILEO 10)   
1 40890U 15045B   25094.10529138 -.00000002  00000+0  00000+0 0  9996
2 40890  55.0958 233.7262 0003017  51.3475 308.6361  1.70473785 59559
GSAT0209 (GALILEO 12)   
1 41174U 15079A   25093.68739274  .00000030  00000+0  00000+0 0  9995
2 41174  55.5680 113.3285 0005341 313.8950  46.1020  1.70474420 57287
GSAT0208 (GALILEO 11)   
1 41175U 15079B   25092.73418655  .00000031  00000+0  00000+0 0  9999
2 41175  55.5659 113.3520 0004670 313.7899  46.2150  1.70474330 57680
GSAT0211 (GALILEO 14)   
1 41549U 16030A   25093.44445148  .00000003  00000+0  00000+0 0  9997
2 41549  55.2448 233.7869 0002843  18.6989 341.2672  1.70473885 55153
GSAT0210 (GALILEO 13)   
1 41550U 16030B   25093.11565124  .00000005  00000+0  00000+0 0  9992
2 41550  55.2455 233.7944 0001796 195.5761 164.3733  1.70473887 55161
GSAT0207 (GALILEO 15)   
1 41859U 16069A   25093.39425239  .00000029  00000+0  00000+0 0  9994
2 41859  55.2344 113.2671 0005726 302.4603  57.5259  1.70474312 51908
GSAT0212 (GALILEO 16)   
1 41860U 16069B   25093.83478301  .00000029  00000+0  00000+0 0  9993
2 41860  55.2325 113.2507 0004131 323.3292  36.6834  1.70474560 52163
GSAT0213 (GALILEO 17)   
1 41861U 16069C   25093.61629510  .00000029  00000+0  00000+0 0  9990
2 41861  55.2347 113.2640 0005816 287.8755  72.1022  1.70474881 52020
GSAT0214 (GALILEO 18)   
1 41862U 16069D   25093.17526280  .00000029  00000+0  00000+0 0  9992
2 41862  55.2330 113.2694 0004827 290.7450  69.2453  1.70474610 52146
GSAT0215 (GALILEO 19)   
1 43055U 17079A   25091.90567593  .00000009  00000+0  00000+0 0  9999
2 43055  55.2232 233.6471 0000215 274.2526  85.6953  1.70474472 45461
GSAT0216 (GALILEO 20)   
1 43056U 17079B   25092.78373402  .00000006  00000+0  00000+0 0  9998
2 43056  55.2235 233.6229 0001704 292.2665  67.6694  1.70474646 45492
GSAT0217 (GALILEO 21)   
1 43057U 17079C   25093.59091155  .00000002  00000+0  00000+0 0  9997
2 43057  55.2207 233.5991 0001565 331.4573  28.4902  1.70474588 45498
GSAT0218 (GALILEO 22)   
1 43058U 17079D   25092.05120922  .00000008  00000+0  00000+0 0  9999
2 43058  55.2216 233.6390 0002098 282.3638  77.5637  1.70474531 45499
GSAT0221 (GALILEO 25)   
1 43564U 18060A   25092.53973544 -.00000100  00000+0  00000+0 0  9995
2 43564  57.2805 353.6727 0004792 308.5312  51.4600  1.70475380 41666
GSAT0222 (GALILEO 26)   
1 43565U 18060B   25092.17211095 -.00000098  00000+0  00000+0 0  9998
2 43565  57.2840 353.6853 0003110 287.7957  72.2052  1.70475106 41693
GSAT0219 (GALILEO 23)   
1 43566U 18060C   25093.56673700 -.00000103  00000+0  00000+0 0  9995
2 43566  57.2830 353.6493 0004241 321.1030  38.8985  1.70475345 41692
GSAT0220 (GALILEO 24)   
1 43567U 18060D   25093.20095826 -.00000102  00000+0  00000+0 0  9993
2 43567  57.2827 353.6588 0004353 314.9139  45.0836  1.70475655 41664
GSAT0223 (GALILEO 27)   
1 49809U 21116A   25092.76669128 -.00000100  00000+0  00000+0 0  9994
2 49809  57.2728 353.5631 0001226 281.0457 263.0344  1.70475216 20677
GSAT0224 (GALILEO 28)   
1 49810U 21116B   25093.16651959 -.00000102  00000+0  00000+0 0  9996
2 49810  57.2733 353.5500 0001729 278.3135 263.7056  1.70475310 20706
GSAT0225 (GALILEO 29)   
1 59598U 24079A   25092.88901878  .00000029  00000+0  00000+0 0  9994
2 59598  54.8516 113.3951 0003102 252.5149 111.0582  1.70474759  5797
GSAT0227 (GALILEO 30)   
1 59600U 24079C   25093.65317690  .00000028  00000+0  00000+0 0  9996
2 59600  54.8477 113.3743 0000330 285.1386  74.8991  1.70474733  5872
GSAT0232 (GALILEO 32)   
1 61182U 24167A   25093.36275186  .00000003  00000+0  00000+0 0  9996
2 61182  55.3327 233.3784 0003018 192.9213 183.9895  1.70473965  3383
GSAT0226 (GALILEO 31)   
1 61183U 24167B   25094.32058828 -.00000003  00000+0  00000+0 0  9997
2 61183  55.3310 233.3578 0001902 145.2987 212.0218  1.70474148  3383
